{
  "links" : {
    "next" : "https://api.nasa.gov/neo/rest/v1/neo/browse?page=15&size=20&api_key=jqAGvNAwUIBu4fl9FSOjdm3V4F7hIglRzI6pdX9d",
    "prev" : "https://api.nasa.gov/neo/rest/v1/neo/browse?page=13&size=20&api_key=jqAGvNAwUIBu4fl9FSOjdm3V4F7hIglRzI6pdX9d",
    "self" : "https://api.nasa.gov/neo/rest/v1/neo/browse?page=14&size=20&api_key=jqAGvNAwUIBu4fl9FSOjdm3V4F7hIglRzI6pdX9d"
  },
  "page" : {
    "size" : 20,
    "total_elements" : 20750,
    "total_pages" : 1038,
    "number" : 14
  },
  "near_earth_objects" : [ {
    "links" : {
      "self" : "https://api.nasa.gov/neo/rest/v1/neo/3174198?api_key=jqAGvNAwUIBu4fl9FSOjdm3V4F7hIglRzI6pdX9d"
    },
    "neo_reference_id" : "3174198",
    "name" : "(2004 BB75)",
    "designation" : "2004 BB75",
    "nasa_jpl_url" : "http://ssd.jpl.nasa.gov/sbdb.cgi?sstr=3174198",
    "absolute_magnitude_h" : 23.1,
    "estimated_diameter" : {
      "kilometers" : {
        "estimated_diameter_min" : 0.063760979,
        "estimated_diameter_max" : 0.1425738833
      },
      "meters" : {
        "estimated_diameter_min" : 63.7609789875,
        "estimated_diameter_max" : 142.5738833281
      },
      "miles" : {
        "estimated_diameter_min" : 0.0396192233,
        "estimated_diameter_max" : 0.0885912765
      },
      "feet" : {
        "estimated_diameter_min" : 209.1895703015,
        "estimated_diameter_max" : 467.7620993781
      }
    },
    "is_potentially_hazardous_asteroid" : false,
    "close_approach_data" : [ {
      "close_approach_date" : "2004-01-29",
      "epoch_date_close_approach" : 1075363200000,
      "relative_velocity" : {
        "kilometers_per_second" : "10.8690426966",
        "kilometers_per_hour" : "39128.5537076765",
        "miles_per_hour" : "24312.9616079726"
      },
      "miss_distance" : {
        "astronomical" : "0.0522248107",
        "lunar" : "20.3154506683",
        "kilometers" : "7812720.5",
        "miles" : "4854599.5"
      },
      "orbiting_body" : "Earth"
    }, {
      "close_approach_date" : "2132-03-12",
      "epoch_date_close_approach" : 5118361200000,
      "relative_velocity" : {
        "kilometers_per_second" : "18.0565064918",
        "kilometers_per_hour" : "65003.4233704811",
        "miles_per_hour" : "40390.5993715081"
      },
      "miss_distance" : {
        "astronomical" : "0.4294335086",
        "lunar" : "167.0496368408",
        "kilometers" : "64242336",
        "miles" : "39918336"
      },
      "orbiting_body" : "Earth"
    } ],
    "orbital_data" : {
      "orbit_id" : "11",
      "orbit_determination_date" : "2017-04-06 09:13:13",
      "first_observation_date" : "2004-01-28",
      "last_observation_date" : "2004-02-18",
      "data_arc_in_days" : 21,
      "observations_used" : 42,
      "orbit_uncertainty" : "8",
      "minimum_orbit_intersection" : ".036069",
      "jupiter_tisserand_invariant" : "3.841",
      "epoch_osculation" : "2453038.5",
      "eccentricity" : ".4466476102443291",
      "semi_major_axis" : "1.845735802593942",
      "inclination" : "16.57754187591546",
      "ascending_node_longitude" : "132.2847769965008",
      "orbital_period" : "915.9098543188161",
      "perihelion_distance" : "1.021342317222959",
      "perihelion_argument" : "358.822051767368",
      "aphelion_distance" : "2.670129287964925",
      "perihelion_time" : "2453034.170542649379",
      "mean_anomaly" : "1.701700924904593",
      "mean_motion" : ".3930517815726969",
      "equinox" : "J2000",
      "orbit_class" : {
        "orbit_class_type" : "AMO",
        "orbit_class_range" : "1.017 AU < q (perihelion) < 1.3 AU",
        "orbit_class_description" : "Near-Earth asteroid orbits similar to that of 1221 Amor"
      }
    },
    "is_sentry_object" : false
  }, {
    "links" : {
      "self" : "https://api.nasa.gov/neo/rest/v1/neo/3174200?api_key=jqAGvNAwUIBu4fl9FSOjdm3V4F7hIglRzI6pdX9d"
    },
    "neo_reference_id" : "3174200",
    "name" : "(2004 BE85)",
    "nasa_jpl_url" : "http://ssd.jpl.nasa.gov/sbdb.cgi?sstr=3174200",
    "absolute_magnitude_h" : 17.9,
    "estimated_diameter" : {
      "kilometers" : {
        "estimated_diameter_min" : 0.6991252322,
        "estimated_diameter_max" : 1.5632915441
      },
      "meters" : {
        "estimated_diameter_min" : 699.1252322458,
        "estimated_diameter_max" : 1563.2915440869
      },
      "miles" : {
        "estimated_diameter_min" : 0.4344161447,
        "estimated_diameter_max" : 0.97138403
      },
      "feet" : {
        "estimated_diameter_min" : 2293.7180269613,
        "estimated_diameter_max" : 5128.9094295021
      }
    },
    "is_potentially_hazardous_asteroid" : false,
    "close_approach_data" : [ ],
    "orbital_data" : {
      "orbit_id" : "34",
      "orbit_determination_date" : "2017-01-27 06:18:51",
      "first_observation_date" : null,
      "last_observation_date" : null,
      "data_arc_in_days" : null,
      "observations_used" : null,
      "orbit_uncertainty" : "0",
      "minimum_orbit_intersection" : ".54352",
      "jupiter_tisserand_invariant" : "3.057",
      "epoch_osculation" : "2457800.5",
      "eccentricity" : ".5209479410789482",
      "semi_major_axis" : "2.686860312602805",
      "inclination" : "23.99523657944398",
      "ascending_node_longitude" : "275.7072211060206",
      "orbital_period" : "1608.666654408718",
      "perihelion_distance" : "1.287145964785635",
      "perihelion_argument" : "268.7569030141032",
      "aphelion_distance" : "4.086574660419975",
      "perihelion_time" : "2457947.183370063953",
      "mean_anomaly" : "327.1740487202226",
      "mean_motion" : ".2237878177019351",
      "equinox" : "J2000",
      "orbit_class" : null
    },
    "is_sentry_object" : false
  }, {
    "links" : {
      "self" : "https://api.nasa.gov/neo/rest/v1/neo/3174201?api_key=jqAGvNAwUIBu4fl9FSOjdm3V4F7hIglRzI6pdX9d"
    },
    "neo_reference_id" : "3174201",
    "name" : "(2004 BF85)",
    "designation" : "2004 BF85",
    "nasa_jpl_url" : "http://ssd.jpl.nasa.gov/sbdb.cgi?sstr=3174201",
    "absolute_magnitude_h" : 20.4,
    "estimated_diameter" : {
      "kilometers" : {
        "estimated_diameter_min" : 0.2210828104,
        "estimated_diameter_max" : 0.4943561926
      },
      "meters" : {
        "estimated_diameter_min" : 221.0828103591,
        "estimated_diameter_max" : 494.3561926196
      },
      "miles" : {
        "estimated_diameter_min" : 0.137374447,
        "estimated_diameter_max" : 0.3071786018
      },
      "feet" : {
        "estimated_diameter_min" : 725.3373275385,
        "estimated_diameter_max" : 1621.9035709942
      }
    },
    "is_potentially_hazardous_asteroid" : false,
    "close_approach_data" : [ {
      "close_approach_date" : "2004-02-08",
      "epoch_date_close_approach" : 1076227200000,
      "relative_velocity" : {
        "kilometers_per_second" : "19.1939681916",
        "kilometers_per_hour" : "69098.2854896534",
        "miles_per_hour" : "42934.9874477238"
      },
      "miss_distance" : {
        "astronomical" : "0.1466028221",
        "lunar" : "57.0284996033",
        "kilometers" : "21931470",
        "miles" : "13627584"
      },
      "orbiting_body" : "Earth"
    } ],
    "orbital_data" : {
      "orbit_id" : "13",
      "orbit_determination_date" : "2017-04-06 09:13:13",
      "first_observation_date" : "2004-01-29",
      "last_observation_date" : "2004-02-09",
      "data_arc_in_days" : 11,
      "observations_used" : 45,
      "orbit_uncertainty" : "9",
      "minimum_orbit_intersection" : ".0572492",
      "jupiter_tisserand_invariant" : "3.660",
      "epoch_osculation" : "2453035.5",
      "eccentricity" : ".7246404473525144",
      "semi_major_axis" : "1.829544877684889",
      "inclination" : "3.717594664574403",
      "ascending_node_longitude" : "212.8706381752467",
      "orbital_period" : "903.884683581841",
      "perihelion_distance" : ".5037826590678096",
      "perihelion_argument" : "17.9483097784037",
      "aphelion_distance" : "3.155307096301968",
      "perihelion_time" : "2453090.426642487710",
      "mean_anomaly" : "338.1237677164543",
      "mean_motion" : ".39828089416608",
      "equinox" : "J2000",
      "orbit_class" : {
        "orbit_class_type" : "APO",
        "orbit_class_range" : "a (semi-major axis) > 1.0 AU; q (perihelion) < 1.017 AU",
        "orbit_class_description" : "Near-Earth asteroid orbits which cross the Earth’s orbit similar to that of 1862 Apollo"
      }
    },
    "is_sentry_object" : false
  } ]
}